[{"OBJECT_NAME":"STARLINK-3571","OBJECT_ID":"2022-022F","EPOCH":"2026-03-09T05:44:17.598048","MEAN_MOTION":15.08831173,"ECCENTRICITY":0.00015413,"INCLINATION":53.2205,"RA_OF_ASC_NODE":21.1593,"ARG_OF_PERICENTER":109.3943,"MEAN_ANOMALY":250.7216,"EPHEMERIS_TYPE":0,"CLASSIFICATION_TYPE":"U","NORAD_CAT_ID":51857,"ELEMENT_SET_NO":999,"REV_AT_EPOCH":22295,"BSTAR":-2.8189455e-5,"MEAN_MOTION_DOT":-7.36e-6,"MEAN_MOTION_DDOT":0},{"OBJECT_NAME":"MEGSAT-1","OBJECT_ID":"2000-057B","EPOCH":"2026-03-09T22:47:17.292480","MEAN_MOTION":15.04862037,"ECCENTRICITY":0.0038022,"INCLINATION":64.552,"RA_OF_ASC_NODE":26.971,"ARG_OF_PERICENTER":294.4401,"MEAN_ANOMALY":65.2751,"EPHEMERIS_TYPE":0,"CLASSIFICATION_TYPE":"U","NORAD_CAT_ID":26546,"ELEMENT_SET_NO":999,"REV_AT_EPOCH":38272,"BSTAR":0.00040228449,"MEAN_MOTION_DOT":5.624e-5,"MEAN_MOTION_DDOT":0}]
